OBJECT_NAME,OBJECT_ID,EPOCH,MEAN_MOTION,ECCENTRICITY,INCLINATION,RA_OF_ASC_NODE,ARG_OF_PERICENTER,MEAN_ANOMALY,EPHEMERIS_TYPE,CLASSIFICATION_TYPE,NORAD_CAT_ID,ELEMENT_SET_NO,REV_AT_EPOCH,BSTAR,MEAN_MOTION_DOT,MEAN_MOTION_DDOT
STARLINK-30258,2023-119G,2024-08-22T03:32:20.588928,15.02542025,.0001324,43.0015,269.2111,268.9575,91.1116,0,U,57608,999,5815,.9784E-4,.1118E-4,0
STARLINK-30174,2023-119H,2024-08-22T12:55:31.350720,15.02538133,.0000997,43.0028,266.9889,284.2406,75.8325,0,U,57609,999,5822,.85267E-4,.948E-5,0
STARLINK-30248,2023-119J,2024-08-22T19:23:14.125632,15.02534159,.0000277,42.9943,265.5694,69.4204,290.6668,0,U,57610,999,5820,.33819E-3,.4368E-4,0
STARLINK-30052,2023-119K,2024-08-22T09:39:16.484832,15.02538232,.0001817,43.0027,267.6893,282.7432,77.3208,0,U,57611,999,5818,.29691E-4,.197E-5,0
STARLINK-30245,2023-119L,2024-08-22T09:34:28.700256,15.02537788,.0000619,43.0002,267.6599,272.5598,87.5173,0,U,57612,999,5820,.38007E-4,.31E-5,0
STARLINK-30041,2023-119M,2024-08-22T09:29:41.085024,15.02537329,.0001257,43.0037,267.6375,269.0938,90.9761,0,U,57613,999,5819,.12564E-4,-.34E-6,0
STARLINK-30244,2023-119N,2024-08-22T18:59:14.164224,15.02562312,.0001274,43.0005,265.4448,261.1381,98.9317,0,U,57614,999,5825,-.54359E-3,-.7544E-4,0
STARLINK-30246,2023-119P,2024-08-22T18:54:26.177472,15.02561349,.0001019,43.0005,265.4051,253.6933,106.3797,0,U,57615,999,5824,-.57206E-3,-.7928E-4,0
STARLINK-30075,2023-119Q,2024-08-22T18:49:48.603648,15.02581046,.0001422,43.0028,266.2570,255.6899,104.3786,0,U,57616,999,5824,-.6099E-3,-.8442E-4,0
STARLINK-30148,2023-119R,2024-08-22T09:10:40.707840,15.02534828,.0000654,42.9906,268.3914,242.7378,117.3398,0,U,57617,999,5818,-.2005E-3,-.291E-4,0
STARLINK-30249,2023-119S,2024-08-22T09:05:52.834272,15.02543853,.0001293,43.0078,268.3793,276.8475,83.2220,0,U,57618,999,5813,.16714E-3,.2055E-4,0
STARLINK-30141,2023-119U,2024-08-22T08:49:53.793408,15.02535015,.0000623,42.9981,268.2874,248.6049,111.4727,0,U,57620,999,5813,.89605E-4,.1007E-4,0
STARLINK-30150,2023-119V,2024-08-22T08:51:29.810592,15.02536803,.0001107,43.0033,268.2992,268.0842,91.9874,0,U,57621,999,5819,.43004E-4,.377E-5,0
STARLINK-30056,2023-119W,2024-08-22T08:46:41.912832,15.02534784,.0001031,43.0009,268.2410,259.4373,100.6353,0,U,57622,999,5818,-.30618E-5,-.245E-5,0
STARLINK-30100,2023-119X,2024-08-22T08:41:54.459168,15.02535941,.0001049,43.0007,268.2470,260.8045,99.2679,0,U,57623,999,5819,.53205E-4,.515E-5,0
STARLINK-30309,2023-122A,2024-08-22T09:39:00.709920,15.02540200,.0001021,43.0011,281.2202,259.2350,100.8378,0,U,57632,999,5727,.20052E-3,.2506E-4,0
STARLINK-30306,2023-122B,2024-08-22T12:45:40.120704,15.02541916,.0001332,43.0026,280.4718,268.9756,91.0934,0,U,57633,999,5730,.54939E-4,.539E-5,0
STARLINK-30323,2023-122C,2024-08-22T19:00:50.257440,15.02539885,.000111,42.9987,265.3964,284.3688,75.7031,0,U,57634,999,5749,-.37645E-3,-.5285E-4,0
STARLINK-30329,2023-122D,2024-08-22T09:29:28.708224,15.02479912,.0000724,43.0035,281.1708,278.6695,81.4066,0,U,57635,999,5723,.29935E-2,.40407E-3,0
STARLINK-30330,2023-122E,2024-08-22T11:00:21.083904,15.02540394,.0001228,43.0008,280.7826,264.2913,95.7789,0,U,57636,999,5730,.98E-4,.1121E-4,0
STARLINK-30311,2023-122F,2024-08-22T02:52:07.119840,15.02536192,.000152,43.0010,282.5399,264.6028,95.4641,0,U,57637,999,5725,.87589E-4,.98E-5,0
STARLINK-30328,2023-122G,2024-08-22T09:36:03.627936,15.02535309,.0000445,43.0002,267.5573,262.0337,98.0455,0,U,57638,999,5746,.69414E-4,.734E-5,0
STARLINK-30326,2023-122H,2024-08-22T09:58:00.895296,15.02544489,.0001171,43.0025,280.4529,277.8880,82.1830,0,U,57639,999,5729,.23076E-3,.2916E-4,0
STARLINK-30324,2023-122J,2024-08-22T04:18:15.469344,15.02536387,.0000921,43.0006,282.1283,266.6013,93.4724,0,U,57640,999,5726,.54364E-4,.531E-5,0
