STARLINK-30258          
1 57608U 23119G   24235.14746052  .00001118  00000+0  97840-4 0  9999
2 57608  43.0015 269.2111 0001324 268.9575  91.1116 15.02542025 58159
STARLINK-30174          
1 57609U 23119H   24235.53855730  .00000948  00000+0  85267-4 0  9997
2 57609  43.0028 266.9889 0000997 284.2406  75.8325 15.02538133 58223
STARLINK-30248          
1 57610U 23119J   24235.80780238  .00004368  00000+0  33819-3 0  9994
2 57610  42.9943 265.5694 0000277  69.4204 290.6668 15.02534159 58207
STARLINK-30052          
1 57611U 23119K   24235.40227413  .00000197  00000+0  29691-4 0  9992
2 57611  43.0027 267.6893 0001817 282.7432  77.3208 15.02538232 58184
STARLINK-30245          
1 57612U 23119L   24235.39894329  .00000310  00000+0  38007-4 0  9995
2 57612  43.0002 267.6599 0000619 272.5598  87.5173 15.02537788 58202
STARLINK-30041          
1 57613U 23119M   24235.39561441 -.00000034  00000+0  12564-4 0  9996
2 57613  43.0037 267.6375 0001257 269.0938  90.9761 15.02537329 58191
STARLINK-30244          
1 57614U 23119N   24235.79113616 -.00007544  00000+0 -54359-3 0  9999
2 57614  43.0005 265.4448 0001274 261.1381  98.9317 15.02562312 58250
STARLINK-30246          
1 57615U 23119P   24235.78780298 -.00007928  00000+0 -57206-3 0  9995
2 57615  43.0005 265.4051 0001019 253.6933 106.3797 15.02561349 58241
STARLINK-30075          
1 57616U 23119Q   24235.78459032 -.00008442  00000+0 -60990-3 0  9991
2 57616  43.0028 266.2570 0001422 255.6899 104.3786 15.02581046 58245
STARLINK-30148          
1 57617U 23119R   24235.38241560 -.00002910  00000+0 -20050-3 0  9990
2 57617  42.9906 268.3914 0000654 242.7378 117.3398 15.02534828 58181
STARLINK-30249          
1 57618U 23119S   24235.37908373  .00002055  00000+0  16714-3 0  9992
2 57618  43.0078 268.3793 0001293 276.8475  83.2220 15.02543853 58133
STARLINK-30141          
1 57620U 23119U   24235.36798372  .00001007  00000+0  89605-4 0  9996
2 57620  42.9981 268.2874 0000623 248.6049 111.4727 15.02535015 58133
STARLINK-30150          
1 57621U 23119V   24235.36909503  .00000377  00000+0  43004-4 0  9999
2 57621  43.0033 268.2992 0001107 268.0842  91.9874 15.02536803 58197
STARLINK-30056          
1 57622U 23119W   24235.36576288 -.00000245  00000+0 -30618-5 0  9994
2 57622  43.0009 268.2410 0001031 259.4373 100.6353 15.02534784 58180
STARLINK-30100          
1 57623U 23119X   24235.36243587  .00000515  00000+0  53205-4 0  9992
2 57623  43.0007 268.2470 0001049 260.8045  99.2679 15.02535941 58197
STARLINK-30309          
1 57632U 23122A   24235.40209155  .00002506  00000+0  20052-3 0  9999
2 57632  43.0011 281.2202 0001021 259.2350 100.8378 15.02540200 57278
STARLINK-30306          
1 57633U 23122B   24235.53171436  .00000539  00000+0  54939-4 0  9990
2 57633  43.0026 280.4718 0001332 268.9756  91.0934 15.02541916 57308
STARLINK-30323          
1 57634U 23122C   24235.79224835 -.00005285  00000+0 -37645-3 0  9990
2 57634  42.9987 265.3964 0001110 284.3688  75.7031 15.02539885 57497
STARLINK-30329          
1 57635U 23122D   24235.39547116  .00040407  00000+0  29935-2 0  9992
2 57635  43.0035 281.1708 0000724 278.6695  81.4066 15.02479912 57238
STARLINK-30330          
1 57636U 23122E   24235.45857736  .00001121  00000+0  98000-4 0  9993
2 57636  43.0008 280.7826 0001228 264.2913  95.7789 15.02540394 57300
STARLINK-30311          
1 57637U 23122F   24235.11952685  .00000980  00000+0  87589-4 0  9998
2 57637  43.0010 282.5399 0001520 264.6028  95.4641 15.02536192 57254
STARLINK-30328          
1 57638U 23122G   24235.40004199  .00000734  00000+0  69414-4 0  9993
2 57638  43.0002 267.5573 0000445 262.0337  98.0455 15.02535309 57467
STARLINK-30326          
1 57639U 23122H   24235.41528814  .00002916  00000+0  23076-3 0  9997
2 57639  43.0025 280.4529 0001171 277.8880  82.1830 15.02544489 57293
STARLINK-30324          
1 57640U 23122J   24235.17934571  .00000531  00000+0  54364-4 0  9999
2 57640  43.0006 282.1283 0000921 266.6013  93.4724 15.02536387 57268
